NORAD_CAT_ID,OBJECT_NAME,OBJECT_TYPE,EPOCH,MEAN_MOTION,ECCENTRICITY,INCLINATION,RA_OF_ASC_NODE,ARG_OF_PERICENTER,MEAN_ANOMALY,BSTAR,MEAN_MOTION_DOT,MEAN_MOTION_DDOT,TLE_LINE0,TLE_LINE1,TLE_LINE2,SEMIMAJOR_AXIS,PERIOD,APOGEE,PERIGEE,DECAYED
52364.0,STARLINK-3820,PAYLOAD,2023-01-31 16:14:06,15.0883649,0.0001181,53.2163,235.4103,87.5106,272.6022,0.00012638,1.724e-05,0.0,0 STARLINK-3820,1 52364U 22045AK  23031.67646171  .00001724  00000-0  12638-3 0  9997,2 52364  53.2163 235.4103 0001181  87.5106 272.6022 15.08836490 44876,6917.891,95.438,540.573,538.939,0.0
52364.0,STARLINK-3820,PAYLOAD,2023-02-01 12:54:07,15.08839872,0.0001244,53.216,231.5437,93.9974,266.116,4.5848e-05,4.42e-06,0.0,0 STARLINK-3820,1 52364U 22045AK  23032.53758223  .00000442  00000-0  45848-4 0  9991,2 52364  53.2160 231.5437 0001244  93.9974 266.1160 15.08839872 45008,6917.881,95.438,540.606,538.885,0.0
52364.0,STARLINK-3820,PAYLOAD,2023-02-01 19:15:39,15.08839053,0.0001251,53.2161,230.3544,89.7413,270.3723,3.2001e-05,2.21e-06,0.0,0 STARLINK-3820,1 52364U 22045AK  23032.80254313  .00000221  00000-0  32001-4 0  9994,2 52364  53.2161 230.3544 0001251  89.7413 270.3723 15.08839053 45041,6917.883,95.438,540.614,538.883,0.0
52364.0,STARLINK-3820,PAYLOAD,2023-02-02 11:09:30,15.08842906,0.0001215,53.2163,227.3818,79.7003,280.4126,8.5276e-05,1.07e-05,0.0,0 STARLINK-3820,1 52364U 22045AK  23033.46493912  .00001070  00000-0  85276-4 0  9992,2 52364  53.2163 227.3818 0001215  79.7003 280.4126 15.08842906 45148,6917.872,95.437,540.577,538.896,0.0
52364.0,STARLINK-3820,PAYLOAD,2023-02-03 06:14:08,15.08843705,0.0001213,53.2165,223.8132,79.9778,280.1351,0.00011104,1.48e-05,0.0,0 STARLINK-3820,1 52364U 22045AK  23034.25981706  .00001480  00000-0  11104-3 0  9996,2 52364  53.2165 223.8132 0001213  79.9778 280.1351 15.08843705 45267,6917.869,95.437,540.573,538.895,0.0
52364.0,STARLINK-3820,PAYLOAD,2023-02-03 12:35:41,15.08838214,0.0001257,53.216,222.6239,81.9024,278.2111,6.6923e-05,7.77e-06,0.0,0 STARLINK-3820,1 52364U 22045AK  23034.52478169  .00000777  00000-0  66923-4 0  9998,2 52364  53.2160 222.6239 0001257  81.9024 278.2111 15.08838214 45308,6917.886,95.438,540.62,538.881,0.0
52364.0,STARLINK-3820,PAYLOAD,2023-02-03 15:46:27,15.08838104,0.000125,53.2162,222.0291,81.985,278.1283,5.8735e-05,6.47e-06,0.0,0 STARLINK-3820,1 52364U 22045AK  23034.65726193  .00000647  00000-0  58735-4 0  9993,2 52364  53.2162 222.0291 0001250  81.9850 278.1283 15.08838104 45321,6917.886,95.438,540.616,538.886,0.0
52364.0,STARLINK-3820,PAYLOAD,2023-02-04 07:40:18,15.08842461,0.0001274,53.2161,219.0559,79.2436,280.87,6.9129e-05,8.13e-06,0.0,0 STARLINK-3820,1 52364U 22045AK  23035.31965901  .00000813  00000-0  69129-4 0  9993,2 52364  53.2161 219.0559 0001274  79.2436 280.8700 15.08842461 45425,6917.873,95.437,540.619,538.857,0.0
52364.0,STARLINK-3820,PAYLOAD,2023-02-04 21:58:46,15.08843884,0.0001165,53.2164,216.3789,88.3918,271.7207,3.0365e-05,1.96e-06,0.0,0 STARLINK-3820,1 52364U 22045AK  23035.91581700  .00000196  00000-0  30365-4 0  9994,2 52364  53.2164 216.3789 0001165  88.3918 271.7207 15.08843884 45519,6917.869,95.437,540.539,538.928,0.0
52364.0,STARLINK-3820,PAYLOAD,2023-02-05 12:17:15,15.08834508,0.0001169,53.2163,213.7023,87.4702,272.6424,2.2006e-05,6.2e-07,0.0,0 STARLINK-3820,1 52364U 22045AK  23036.51198404  .00000062  00000-0  22006-4 0  9991,2 52364  53.2163 213.7023 0001169  87.4702 272.6424 15.08834508 45609,6917.897,95.438,540.571,538.953,0.0
52364.0,STARLINK-3820,PAYLOAD,2023-02-05 18:38:47,15.08837356,0.0001116,53.2166,212.5135,86.4179,273.6941,4.1304e-05,3.7e-06,0.0,0 STARLINK-3820,1 52364U 22045AK  23036.77694220  .00000370  00000-0  41304-4 0  9990,2 52364  53.2166 212.5135 0001116  86.4179 273.6941 15.08837356 45645,6917.888,95.438,540.526,538.981,0.0
52364.0,STARLINK-3820,PAYLOAD,2023-02-06 12:08:02,15.08834867,0.0001124,53.2166,209.2424,86.2967,273.8154,2.794e-05,1.57e-06,0.0,0 STARLINK-3820,1 52364U 22045AK  23037.50558581  .00000157  00000-0  27940-4 0  9994,2 52364  53.2166 209.2424 0001124  86.2967 273.8154 15.08834867 45755,6917.896,95.438,540.539,538.984,0.0
52364.0,STARLINK-3820,PAYLOAD,2023-02-06 18:29:34,15.08842071,0.0001107,53.2166,208.0532,86.2332,273.8787,8.4326e-05,1.055e-05,0.0,0 STARLINK-3820,1 52364U 22045AK  23037.77054004  .00001055  00000-0  84326-4 0  9993,2 52364  53.2166 208.0532 0001107  86.2332 273.8787 15.08842071 45791,6917.874,95.437,540.505,538.973,0.0
52364.0,STARLINK-3820,PAYLOAD,2023-02-07 04:01:53,15.08841973,0.0001092,53.2167,206.2691,87.4082,272.7035,7.5378e-05,9.12e-06,0.0,0 STARLINK-3820,1 52364U 22045AK  23038.16798050  .00000912  00000-0  75378-4 0  9991,2 52364  53.2167 206.2691 0001092  87.4082 272.7035 15.08841973 45857,6917.874,95.437,540.495,538.984,0.0
52364.0,STARLINK-3820,PAYLOAD,2023-02-07 13:34:12,15.08834083,0.0001117,53.2165,204.4848,88.7596,271.3525,4.634e-05,4.5e-06,0.0,0 STARLINK-3820,1 52364U 22045AK  23038.56542736  .00000450  00000-0  46340-4 0  9997,2 52364  53.2165 204.4848 0001117  88.7596 271.3525 15.08834083 45911,6917.898,95.438,540.536,538.991,0.0
52364.0,STARLINK-3820,PAYLOAD,2023-02-07 18:20:21,15.08839769,0.0001112,53.2165,203.5927,85.3863,274.7256,8.6975e-05,1.097e-05,0.0,0 STARLINK-3820,1 52364U 22045AK  23038.76414304  .00001097  00000-0  86975-4 0  9994,2 52364  53.2165 203.5927 0001112  85.3863 274.7256 15.08839769 45941,6917.881,95.438,540.515,538.977,0.0
52364.0,STARLINK-3820,PAYLOAD,2023-02-08 03:52:40,15.08840514,0.000111,53.2171,201.8081,84.3727,275.7391,4.2464e-05,3.88e-06,0.0,0 STARLINK-3820,1 52364U 22045AK  23039.16158386  .00000388  00000-0  42464-4 0  9991,2 52364  53.2171 201.8081 0001110  84.3727 275.7391 15.08840514 46005,6917.879,95.438,540.512,538.976,0.0
52364.0,STARLINK-3820,PAYLOAD,2023-02-08 15:00:23,15.08837046,0.0001214,53.2164,199.728,90.1592,269.9539,-1.6632e-05,-5.53e-06,0.0,0 STARLINK-3820,1 52364U 22045AK  23039.62526937 -.00000553  00000-0 -16632-4 0  9997,2 52364  53.2164 199.7280 0001214  90.1592 269.9539 15.08837046 46075,6917.889,95.438,540.594,538.915,0.0
52364.0,STARLINK-3820,PAYLOAD,2023-02-08 18:11:09,15.08844062,0.0001178,53.2171,199.1315,84.5597,275.5529,4.5481e-05,4.36e-06,0.0,0 STARLINK-3820,1 52364U 22045AK  23039.75774352  .00000436  00000-0  45481-4 0  9999,2 52364  53.2171 199.1315 0001178  84.5597 275.5529 15.08844062 46097,6917.868,95.437,540.548,538.918,0.0
52364.0,STARLINK-3820,PAYLOAD,2023-02-09 03:43:28,15.08842367,0.0001192,53.2169,197.3476,87.4178,272.695,3.1065e-05,2.07e-06,0.0,0 STARLINK-3820,1 52364U 22045AK  23040.15518530  .00000207  00000-0  31065-4 0  9998,2 52364  53.2169 197.3476 0001192  87.4178 272.6950 15.08842367 46154,6917.873,95.437,540.563,538.914,0.0
52364.0,STARLINK-3820,PAYLOAD,2023-02-09 13:15:47,15.08836842,0.0001105,53.2164,195.565,87.2095,272.9024,6.9994e-05,8.26e-06,0.0,0 STARLINK-3820,1 52364U 22045AK  23040.55262796  .00000826  00000-0  69994-4 0  9991,2 52364  53.2164 195.5650 0001105  87.2095 272.9024 15.08836842 46216,6917.89,95.438,540.519,538.991,0.0
52364.0,STARLINK-3820,PAYLOAD,2023-02-10 03:34:14,15.08845412,0.0001114,53.2164,192.8886,89.2242,270.8878,0.00010013,1.306e-05,0.0,0 STARLINK-3820,1 52364U 22045AK  23041.14878135  .00001306  00000-0  10013-3 0  9998,2 52364  53.2164 192.8886 0001114  89.2242 270.8878 15.08845412 46300,6917.864,95.437,540.499,538.958,0.0
52364.0,STARLINK-3820,PAYLOAD,2023-02-10 14:41:56,15.08839328,0.0001028,53.2182,190.8054,116.4629,243.6469,0.00010288,1.35e-05,0.0,0 STARLINK-3820,1 52364U 22045AK  23041.61246443  .00001350  00000-0  10288-3 0  9994,2 52364  53.2182 190.8054 0001028 116.4629 243.6469 15.08839328 46371,6917.882,95.438,540.459,539.036,0.0
52364.0,STARLINK-3820,PAYLOAD,2023-02-10 21:03:29,15.08846021,0.0001098,53.2182,189.6155,105.8271,254.2842,4.5593e-05,4.38e-06,0.0,0 STARLINK-3820,1 52364U 22045AK  23041.87742218  .00000438  00000-0  45593-4 0  9997,2 52364  53.2182 189.6155 0001098 105.8271 254.2842 15.08846021 46417,6917.862,95.437,540.487,538.967,0.0
52364.0,STARLINK-3820,PAYLOAD,2023-02-11 11:21:58,15.08832468,0.000114,53.2162,186.941,92.9071,267.2052,6.1619e-06,-1.9e-06,0.0,0 STARLINK-3820,1 52364U 22045AK  23042.47359319 -.00000190  00000-0  61619-5 0  9994,2 52364  53.2162 186.9410 0001140  92.9071 267.2052 15.08832468 46508,6917.903,95.438,540.557,538.98,0.0
52364.0,STARLINK-3820,PAYLOAD,2023-02-11 16:08:07,15.088368,9.06e-05,53.2174,186.048,111.2132,248.8957,4.1279e-05,3.69e-06,0.0,0 STARLINK-3820,1 52364U 22045AK  23042.67230861  .00000369  00000-0  41279-4 0  9992,2 52364  53.2174 186.0480 0000906 111.2132 248.8957 15.08836800 46537,6917.89,95.438,540.382,539.128,0.0
52364.0,STARLINK-3820,PAYLOAD,2023-02-12 04:51:11,15.08846538,0.000109,53.2168,183.6691,107.6197,252.4914,0.00013853,1.918e-05,0.0,0 STARLINK-3820,1 52364U 22045AK  23043.20221892  .00001918  00000-0  13853-3 0  9993,2 52364  53.2168 183.6691 0001090 107.6197 252.4914 15.08846538 46614,6917.86,95.437,540.479,538.971,0.0
52364.0,STARLINK-3820,PAYLOAD,2023-02-12 11:12:43,15.08849833,0.0001072,53.2169,182.4796,106.1554,253.9556,0.00017242,2.458e-05,0.0,0 STARLINK-3820,1 52364U 22045AK  23043.46717537  .00002458  00000-0  17242-3 0  9993,2 52364  53.2169 182.4796 0001072 106.1554 253.9556 15.08849833 46652,6917.85,95.437,540.457,538.974,0.0
52364.0,STARLINK-3820,PAYLOAD,2023-02-12 22:20:00,15.09151236,0.0001615,53.2169,180.3948,125.9692,234.145,0.0024766,0.00039688,0.0,0 STARLINK-3820,1 52364U 22045AK  23043.93056235  .00039688  00000-0  24766-2 0  9999,2 52364  53.2169 180.3948 0001615 125.9692 234.1450 15.09151236 46729,6916.929,95.418,539.911,537.677,0.0
52364.0,STARLINK-3820,PAYLOAD,2023-02-13 04:41:19,15.09276504,0.0001057,53.2173,179.2055,74.7577,285.3532,0.0034825,0.00056249,0.0,0 STARLINK-3820,1 52364U 22045AK  23044.19536228  .00056249  00000-0  34825-2 0  9992,2 52364  53.2173 179.2055 0001057  74.7577 285.3532 15.09276504 46762,6916.546,95.41,539.143,537.68,0.0
